[{"OBJECT_NAME":"CORVUS BC1","OBJECT_ID":"2017-042Y","EPOCH":"2026-03-09T22:24:00.973440","MEAN_MOTION":15.05817893,"ECCENTRICITY":0.00132832,"INCLINATION":97.3986,"RA_OF_ASC_NODE":234.9925,"ARG_OF_PERICENTER":71.1953,"MEAN_ANOMALY":289.0714,"EPHEMERIS_TYPE":0,"CLASSIFICATION_TYPE":"U","NORAD_CAT_ID":42847,"ELEMENT_SET_NO":999,"REV_AT_EPOCH":47215,"BSTAR":0.00033801202,"MEAN_MOTION_DOT":4.853e-5,"MEAN_MOTION_DDOT":0},{"OBJECT_NAME":"STARLINK-4531","OBJECT_ID":"2022-097AP","EPOCH":"2026-03-09T09:42:01.708416","MEAN_MOTION":15.08839307,"ECCENTRICITY":0.00014626,"INCLINATION":53.2169,"RA_OF_ASC_NODE":115.4028,"ARG_OF_PERICENTER":94.1137,"MEAN_ANOMALY":266.0022,"EPHEMERIS_TYPE":0,"CLASSIFICATION_TYPE":"U","NORAD_CAT_ID":53425,"ELEMENT_SET_NO":999,"REV_AT_EPOCH":19857,"BSTAR":-4.0038341e-5,"MEAN_MOTION_DOT":-9.25e-6,"MEAN_MOTION_DDOT":0}]
